[
    {
        "Altitude(m)": 555994.3799631732,
        "Argument of Periapsis(deg)": 0.006622991110713501,
        "Eccentricity": 0.0,
        "Inclination(deg)": 53.0,
        "Latitude(deg)": -9.625293801134104,
        "Longitude(deg)": 131.5289461756962,
        "Mean Anomaly(deg)": 191.90979286757755,
        "RAAN(deg)": 44.99014336852802,
        "Satellite Name": "Starlink Shell 1 209",
        "Satellite Number": 209,
        "Semi-Major Axis(m)": 6931778.249405717,
        "Time(s)": 190
    },
    {
        "Altitude(m)": 556111.485273389,
        "Argument of Periapsis(deg)": 0.0069715695902247375,
        "Eccentricity": 0.0,
        "Inclination(deg)": 53.0,
        "Latitude(deg)": -10.124553574819359,
        "Longitude(deg)": 131.87547103955535,
        "Mean Anomaly(deg)": 192.53662407113427,
        "RAAN(deg)": 44.98962459845054,
        "Satellite Name": "Starlink Shell 1 209",
        "Satellite Number": 209,
        "Semi-Major Axis(m)": 6931778.249405717,
        "Time(s)": 200
    },
    {
        "Altitude(m)": 556230.9566675621,
        "Argument of Periapsis(deg)": 0.007320148069735974,
        "Eccentricity": 0.0,
        "Inclination(deg)": 53.0,
        "Latitude(deg)": -10.623326881698002,
        "Longitude(deg)": 132.2231852670077,
        "Mean Anomaly(deg)": 193.16345527469102,
        "RAAN(deg)": 44.98910582837307,
        "Satellite Name": "Starlink Shell 1 209",
        "Satellite Number": 209,
        "Semi-Major Axis(m)": 6931778.249405717,
        "Time(s)": 210
    },
    {
        "Altitude(m)": 556352.759406134,
        "Argument of Periapsis(deg)": 0.007668726549247212,
        "Eccentricity": 0.0,
        "Inclination(deg)": 53.0,
        "Latitude(deg)": -11.121588334142885,
        "Longitude(deg)": 132.5721516910168,
        "Mean Anomaly(deg)": 193.7902864782477,
        "RAAN(deg)": 44.9885870582956,
        "Satellite Name": "Starlink Shell 1 209",
        "Satellite Number": 209,
        "Semi-Major Axis(m)": 6931778.249405717,
        "Time(s)": 220
    },
    {
        "Altitude(m)": 556476.8575684798,
        "Argument of Periapsis(deg)": 0.00801730502875845,
        "Eccentricity": 0.0,
        "Inclination(deg)": 53.0,
        "Latitude(deg)": -11.619312283885135,
        "Longitude(deg)": 132.92243368173015,
        "Mean Anomaly(deg)": 194.41711768180446,
        "RAAN(deg)": 44.98806828821812,
        "Satellite Name": "Starlink Shell 1 209",
        "Satellite Number": 209,
        "Semi-Major Axis(m)": 6931778.249405717,
        "Time(s)": 230
    },
    {
        "Altitude(m)": 556603.2140680638,
        "Argument of Periapsis(deg)": 0.008365883508269684,
        "Eccentricity": 0.0,
        "Inclination(deg)": 53.0,
        "Latitude(deg)": -12.11647280770755,
        "Longitude(deg)": 133.27409567721543,
        "Mean Anomaly(deg)": 195.04394888536115,
        "RAAN(deg)": 44.98754951814065,
        "Satellite Name": "Starlink Shell 1 209",
        "Satellite Number": 209,
        "Semi-Major Axis(m)": 6931778.249405717,
        "Time(s)": 240
    },
    {
        "Altitude(m)": 556731.790668175,
        "Argument of Periapsis(deg)": 0.008714461987780921,
        "Eccentricity": 0.0,
        "Inclination(deg)": 53.0,
        "Latitude(deg)": -12.613043692881561,
        "Longitude(deg)": 133.62720220139272,
        "Mean Anomaly(deg)": 195.6707800889179,
        "RAAN(deg)": 44.987030748063184,
        "Satellite Name": "Starlink Shell 1 209",
        "Satellite Number": 209,
        "Semi-Major Axis(m)": 6931778.249405717,
        "Time(s)": 250
    },
    {
        "Altitude(m)": 556862.5479982741,
        "Argument of Periapsis(deg)": 0.009063040467292158,
        "Eccentricity": 0.0,
        "Inclination(deg)": 53.0,
        "Latitude(deg)": -13.108998422337615,
        "Longitude(deg)": 133.9818183948996,
        "Mean Anomaly(deg)": 196.2976112924746,
        "RAAN(deg)": 44.98651197798571,
        "Satellite Name": "Starlink Shell 1 209",
        "Satellite Number": 209,
        "Semi-Major Axis(m)": 6931778.249405717,
        "Time(s)": 260
    },
    {
        "Altitude(m)": 556995.4455708426,
        "Argument of Periapsis(deg)": 0.009411618946803396,
        "Eccentricity": 0.0,
        "Inclination(deg)": 53.0,
        "Latitude(deg)": -13.604310159556187,
        "Longitude(deg)": 134.33801054600792,
        "Mean Anomaly(deg)": 196.9244424960313,
        "RAAN(deg)": 44.98599320790824,
        "Satellite Name": "Starlink Shell 1 209",
        "Satellite Number": 209,
        "Semi-Major Axis(m)": 6931778.249405717,
        "Time(s)": 270
    },
    {
        "Altitude(m)": 557130.4417988323,
        "Argument of Periapsis(deg)": 0.009760197426314633,
        "Eccentricity": 0.0,
        "Inclination(deg)": 53.0,
        "Latitude(deg)": -14.09895173316532,
        "Longitude(deg)": 134.6958451087086,
        "Mean Anomaly(deg)": 197.55127369958802,
        "RAAN(deg)": 44.98547443783076,
        "Satellite Name": "Starlink Shell 1 209",
        "Satellite Number": 209,
        "Semi-Major Axis(m)": 6931778.249405717,
        "Time(s)": 280
    },
    {
        "Altitude(m)": 557267.4940136356,
        "Argument of Periapsis(deg)": 0.01010877590582587,
        "Eccentricity": 0.0,
        "Inclination(deg)": 53.0,
        "Latitude(deg)": -14.592895621233799,
        "Longitude(deg)": 135.0553892336949,
        "Mean Anomaly(deg)": 198.1781049031447,
        "RAAN(deg)": 44.98495566775329,
        "Satellite Name": "Starlink Shell 1 209",
        "Satellite Number": 209,
        "Semi-Major Axis(m)": 6931778.249405717,
        "Time(s)": 290
    },
    {
        "Altitude(m)": 557406.5584835723,
        "Argument of Periapsis(deg)": 0.010457354385337106,
        "Eccentricity": 0.0,
        "Inclination(deg)": 53.0,
        "Latitude(deg)": -15.086113935249385,
        "Longitude(deg)": 135.4167112993597,
        "Mean Anomaly(deg)": 198.80493610670143,
        "RAAN(deg)": 44.98443689767581,
        "Satellite Name": "Starlink Shell 1 209",
        "Satellite Number": 209,
        "Semi-Major Axis(m)": 6931778.249405717,
        "Time(s)": 300
    },
    {
        "Altitude(m)": 557547.5904329395,
        "Argument of Periapsis(deg)": 0.010805932864848343,
        "Eccentricity": 0.0,
        "Inclination(deg)": 53.0,
        "Latitude(deg)": -15.578578403764567,
        "Longitude(deg)": 135.77987992991325,
        "Mean Anomaly(deg)": 199.4317673102582,
        "RAAN(deg)": 44.98391812759834,
        "Satellite Name": "Starlink Shell 1 209",
        "Satellite Number": 209,
        "Semi-Major Axis(m)": 6931778.249405717,
        "Time(s)": 310
    },
    {
        "Altitude(m)": 557690.5440615222,
        "Argument of Periapsis(deg)": 0.01115451134435958,
        "Eccentricity": 0.0,
        "Inclination(deg)": 53.0,
        "Latitude(deg)": -16.07026035570242,
        "Longitude(deg)": 136.14496452634776,
        "Mean Anomaly(deg)": 200.05859851381487,
        "RAAN(deg)": 44.983399357520874,
        "Satellite Name": "Starlink Shell 1 209",
        "Satellite Number": 209,
        "Semi-Major Axis(m)": 6931778.249405717,
        "Time(s)": 320
    },
    {
        "Altitude(m)": 557835.3725646652,
        "Argument of Periapsis(deg)": 0.011503089823870818,
        "Eccentricity": 0.0,
        "Inclination(deg)": 53.0,
        "Latitude(deg)": -16.561130703310177,
        "Longitude(deg)": 136.51203579735494,
        "Mean Anomaly(deg)": 200.6854297173716,
        "RAAN(deg)": 44.9828805874434,
        "Satellite Name": "Starlink Shell 1 209",
        "Satellite Number": 209,
        "Semi-Major Axis(m)": 6931778.249405717,
        "Time(s)": 330
    },
    {
        "Altitude(m)": 557982.028153774,
        "Argument of Periapsis(deg)": 0.011851668303382053,
        "Eccentricity": 0.0,
        "Inclination(deg)": 53.0,
        "Latitude(deg)": -17.051159924742695,
        "Longitude(deg)": 136.88116477729497,
        "Mean Anomaly(deg)": 201.3122609209283,
        "RAAN(deg)": 44.98236181736593,
        "Satellite Name": "Starlink Shell 1 209",
        "Satellite Number": 209,
        "Semi-Major Axis(m)": 6931778.249405717,
        "Time(s)": 340
    },
    {
        "Altitude(m)": 558130.4620773403,
        "Argument of Periapsis(deg)": 0.012200246782893292,
        "Eccentricity": 0.0,
        "Inclination(deg)": 53.0,
        "Latitude(deg)": -17.540318046270613,
        "Longitude(deg)": 137.2524233569355,
        "Mean Anomaly(deg)": 201.93909212448503,
        "RAAN(deg)": 44.98184304728846,
        "Satellite Name": "Starlink Shell 1 209",
        "Satellite Number": 209,
        "Semi-Major Axis(m)": 6931778.249405717,
        "Time(s)": 350
    },
    {
        "Altitude(m)": 558280.6246424267,
        "Argument of Periapsis(deg)": 0.012548825262404526,
        "Eccentricity": 0.0,
        "Inclination(deg)": 53.0,
        "Latitude(deg)": -18.02857462409856,
        "Longitude(deg)": 137.6258848140562,
        "Mean Anomaly(deg)": 202.56592332804178,
        "RAAN(deg)": 44.98132427721098,
        "Satellite Name": "Starlink Shell 1 209",
        "Satellite Number": 209,
        "Semi-Major Axis(m)": 6931778.249405717,
        "Time(s)": 360
    },
    {
        "Altitude(m)": 558432.4652365798,
        "Argument of Periapsis(deg)": 0.012897403741915765,
        "Eccentricity": 0.0,
        "Inclination(deg)": 53.0,
        "Latitude(deg)": -18.51589872577888,
        "Longitude(deg)": 138.00162283100786,
        "Mean Anomaly(deg)": 203.19275453159847,
        "RAAN(deg)": 44.98080550713351,
        "Satellite Name": "Starlink Shell 1 209",
        "Satellite Number": 209,
        "Semi-Major Axis(m)": 6931778.249405717,
        "Time(s)": 370
    }
]